{"type":"FeatureCollection","features":[{"type":"Feature","geometry":{"type":"Point","coordinates":[151.22167,-33.22639]},"properties":{"name":"Kulnura","zone":"56","sid":"5589","district":"Central Coast","point_type":238}},{"type":"Feature","geometry":{"type":"Point","coordinates":[149.34832,-34.63781]},"properties":{"name":"Mt Mary","zone":"55","sid":"34919","district":"Southern Tablelands","point_type":238}},{"type":"Feature","geometry":{"type":"Point","coordinates":[153.28871,-28.23604]},"properties":{"name":"Twd Site Bilbrough Lookout Springbrook","zone":"56","sid":"39464","district":"Far North\/ Northern Rivers","point_type":238}},{"type":"Feature","geometry":{"type":"Point","coordinates":[153.4518,-28.38061]},"properties":{"name":"Sra Tower Cooradilla Rd  Burringbar","zone":"56","sid":"39389","district":"Far North\/ Northern Rivers","point_type":238}},{"type":"Feature","geometry":{"type":"Point","coordinates":[152.64355,-28.38776]},"properties":{"name":"Fire Tower Woodenbong","zone":"56","sid":"8344","district":"Far North\/ Northern Rivers","point_type":238}},{"type":"Feature","geometry":{"type":"Point","coordinates":[152.32423,-28.3963]},"properties":{"name":"Acacia Plateau","zone":"56","sid":"200813","district":"Northern Tablelands","point_type":238}},{"type":"Feature","geometry":{"type":"Point","coordinates":[153.4063,-28.53547]},"properties":{"name":"Koonyum Range Rd Via  Mullumbimby","zone":"56","sid":"200908","district":"Far North\/ Northern Rivers","point_type":238}},{"type":"Feature","geometry":{"type":"Point","coordinates":[153.06984,-28.57262]},"properties":{"name":"Northern Communications R\/T Site Homeleigh","zone":"56","sid":"280078","district":"Far North\/ Northern Rivers","point_type":238}},{"type":"Feature","geometry":{"type":"Point","coordinates":[150.35462,-28.60865]},"properties":{"name":"Gha Silo Site 1  Boggabilla","zone":"56","sid":"7378","district":"Gwydir Namoi","point_type":238}},{"type":"Feature","geometry":{"type":"Point","coordinates":[152.50896,-28.62275]},"properties":{"name":"Police Site Haystack Mountain Yabbra State Forest","zone":"56","sid":"280038","district":"Far North\/ Northern Rivers","point_type":238}},{"type":"Feature","geometry":{"type":"Point","coordinates":[153.59662,-28.68009]},"properties":{"name":"Nsw Rural Fire Service Site Coopers Shoot Byron Bay","zone":"56","sid":"34911","district":"Far North\/ Northern Rivers","point_type":238}},{"type":"Feature","geometry":{"type":"Point","coordinates":[153.53342,-28.77062]},"properties":{"name":"Reservoir Pacific Hwy Knockrow","zone":"56","sid":"8410","district":"Far North\/ Northern Rivers","point_type":238}},{"type":"Feature","geometry":{"type":"Point","coordinates":[153.3163,-28.82383]},"properties":{"name":"Reservoir A Wyreema Avenue At Fischer Street Goonellabah","zone":"56","sid":"8536","district":"Far North\/ Northern Rivers","point_type":238}},{"type":"Feature","geometry":{"type":"Point","coordinates":[149.79748,-28.89831]},"properties":{"name":"Countrywide Communications Site  Laurel Vale  Via Garah","zone":"55","sid":"7253","district":"Gwydir Namoi","point_type":238}},{"type":"Feature","geometry":{"type":"Point","coordinates":[152.73906,-28.90121]},"properties":{"name":"Bruxner Hwy Mallanganee","zone":"56","sid":"8269","district":"Far North\/ Northern Rivers","point_type":238}},{"type":"Feature","geometry":{"type":"Point","coordinates":[152.30588,-28.95076]},"properties":{"name":"Fire Tower  Girard","zone":"56","sid":"8255","district":"Northern Tablelands","point_type":238}},{"type":"Feature","geometry":{"type":"Point","coordinates":[153.46185,-28.9653]},"properties":{"name":"Pacific Hwy Wardell","zone":"56","sid":"8353","district":"Far North\/ Northern Rivers","point_type":238}},{"type":"Feature","geometry":{"type":"Point","coordinates":[149.04728,-28.96766]},"properties":{"name":"Countrywide Communications Site  Airport Mungindi","zone":"55","sid":"7328","district":"Gwydir Namoi","point_type":238}},{"type":"Feature","geometry":{"type":"Point","coordinates":[150.44334,-29.04743]},"properties":{"name":"Rta Site Mitchell Hill  Mount Mitchell","zone":"56","sid":"7362","district":"Gwydir Namoi","point_type":238}},{"type":"Feature","geometry":{"type":"Point","coordinates":[152.012,-29.05899]},"properties":{"name":"Tenterfield Fcc","zone":"56","district":"Northern Tablelands","point_type":238}},{"type":"Feature","geometry":{"type":"Point","coordinates":[151.10056,-29.06394]},"properties":{"name":"Inverell Shire Council Site Hallam Trig","zone":"56","sid":"6872","district":"Northern Tablelands","point_type":238}},{"type":"Feature","geometry":{"type":"Point","coordinates":[151.96526,-29.08772]},"properties":{"name":"Tenterfield Council Site  Mt Mackenzie","zone":"56","sid":"130220","district":"Northern Tablelands","point_type":238}},{"type":"Feature","geometry":{"type":"Point","coordinates":[147.45221,-29.11519]},"properties":{"name":"Goodooga Fire Shed","zone":"55","sid":"9001148","district":"Barwon Darling","point_type":238}},{"type":"Feature","geometry":{"type":"Point","coordinates":[152.73839,-29.12749]},"properties":{"name":"Comms Site Mt Belmore State Forest Pickabooba Trig","zone":"56","sid":"280241","district":"Clarence Valley","point_type":238}},{"type":"Feature","geometry":{"type":"Point","coordinates":[152.00872,-29.37831]},"properties":{"name":"The Magistrate  Police Site At Capoompeta Trig","zone":"56","sid":"6989","district":"New England","point_type":238}},{"type":"Feature","geometry":{"type":"Point","coordinates":[151.55511,-29.38811]},"properties":{"name":"Transgrid Site  Grampian Ridge Via  Emmaville","zone":"56","sid":"250528","district":"Northern Tablelands","point_type":238}},{"type":"Feature","geometry":{"type":"Point","coordinates":[147.98059,-29.43284]},"properties":{"name":"Ses  Pandora Street  Lightning Ridge","zone":"55","sid":"15477","district":"North West Team","point_type":238}},{"type":"Feature","geometry":{"type":"Point","coordinates":[149.74988,-29.47203]},"properties":{"name":"Countrywide Comms Site Tarrawingee Road  Moree","zone":"55","sid":"7254","district":"Gwydir Namoi","point_type":238}},{"type":"Feature","geometry":{"type":"Point","coordinates":[150.14063,-29.47517]},"properties":{"name":"Rfs Brigade Station Pallamallawa 29 Km E Of  Moree","zone":"56","sid":"402412","district":"Gwydir Namoi","point_type":238}},{"type":"Feature","geometry":{"type":"Point","coordinates":[150.46083,-29.56511]},"properties":{"name":"Yallaroi Shire Site  Mt Toolimbah","zone":"56","sid":"250713","district":"Gwydir Namoi","point_type":238}},{"type":"Feature","geometry":{"type":"Point","coordinates":[153.27637,-29.58658]},"properties":{"name":"Clarence Peak","zone":"56","sid":"8212","district":"Clarence Valley","point_type":238}},{"type":"Feature","geometry":{"type":"Point","coordinates":[148.49136,-29.59079]},"properties":{"name":"Moree Broadcasters Site  Mt Brandon","zone":"55","sid":"280127","district":"North West Team","point_type":238}},{"type":"Feature","geometry":{"type":"Point","coordinates":[152.47809,-29.61557]},"properties":{"name":"Northern Rivers Comms. Site Cangai East","zone":"56","sid":"8175","district":"Clarence Valley","point_type":238}},{"type":"Feature","geometry":{"type":"Point","coordinates":[152.13954,-29.65122]},"properties":{"name":"Frog Hollow Lookout  Gibraltar Range State Forest Gwydir Hwy Via  Glen Innes","zone":"56","sid":"202370","district":"Northern Tablelands","point_type":238}},{"type":"Feature","geometry":{"type":"Point","coordinates":[150.83299,-29.65426]},"properties":{"name":"Water Reservoir 500M Ne Of Gwydir Hwy & Bingara Rd Jnctn  Delungra","zone":"56","sid":"403397","district":"Northern Tablelands","point_type":238}},{"type":"Feature","geometry":{"type":"Point","coordinates":[147.6151,-29.671]},"properties":{"name":"Ses\/Broadcast Site  Glengarry Opal Fields  Grawin","zone":"55","sid":"200589","district":"North West Team","point_type":238}},{"type":"Feature","geometry":{"type":"Point","coordinates":[152.92094,-29.73262]},"properties":{"name":"Grafton District Golf Club Bent Street South Grafton","zone":"56","sid":"8166","district":"Clarence Valley","point_type":238}},{"type":"Feature","geometry":{"type":"Point","coordinates":[151.10948,-29.77705]},"properties":{"name":"Eoc  Campbell Street Site 1  Inverell","zone":"56","sid":"6813","district":"Northern Tablelands","point_type":238}},{"type":"Feature","geometry":{"type":"Point","coordinates":[147.77104,-29.81999]},"properties":{"name":"Commsite  Cumborah Village","zone":"55","sid":"201611","district":"North West Team","point_type":238}},{"type":"Feature","geometry":{"type":"Point","coordinates":[151.08598,-29.83256]},"properties":{"name":"Inverell Shire Uambi","zone":"56","sid":"6828","district":"Northern Tablelands","point_type":238}},{"type":"Feature","geometry":{"type":"Point","coordinates":[151.22155,-29.95454]},"properties":{"name":"Water Tower Tingha","zone":"56","sid":"250540","district":"New England","point_type":238}},{"type":"Feature","geometry":{"type":"Point","coordinates":[146.86398,-29.95556]},"properties":{"name":"Brewarrina Fcc","zone":"55","sid":"9001149","district":"Barwon Darling","point_type":238}},{"type":"Feature","geometry":{"type":"Point","coordinates":[151.60401,-29.96086]},"properties":{"name":"Mount Rumbee","zone":"56","sid":"6898","district":"New England","point_type":238}},{"type":"Feature","geometry":{"type":"Point","coordinates":[150.64948,-29.97796]},"properties":{"name":"Country Energy Site  Bora  Bingara","zone":"56","sid":"7302","district":"Gwydir Namoi","point_type":238}},{"type":"Feature","geometry":{"type":"Point","coordinates":[153.10709,-29.9824]},"properties":{"name":"Countrywide Communications Site Halfway Creek","zone":"56","sid":"280211","district":"Clarence Valley","point_type":238}},{"type":"Feature","geometry":{"type":"Point","coordinates":[148.11169,-30.0224]},"properties":{"name":"Country Energy Depot  Wee Waa Street  Walgett","zone":"55","sid":"11076","district":"North West Team","point_type":238}},{"type":"Feature","geometry":{"type":"Point","coordinates":[145.95182,-30.04147]},"properties":{"name":"Bourke Fcc","zone":"55","sid":"9001147","district":"Barwon Darling","point_type":238}},{"type":"Feature","geometry":{"type":"Point","coordinates":[152.61849,-30.08012]},"properties":{"name":"Clouds Creek","zone":"56","sid":"35905","district":"Clarence Valley","point_type":238}},{"type":"Feature","geometry":{"type":"Point","coordinates":[153.17981,-30.12886]},"properties":{"name":"Optus Site Off Greys Rd South West   Woolgoolga","zone":"56","sid":"55338","district":"Mid North Coast","point_type":238}},{"type":"Feature","geometry":{"type":"Point","coordinates":[152.42983,-30.16755]},"properties":{"name":"Countrywide Communications Site Mount Hyland","zone":"56","sid":"7985","district":"Mid North Coast","point_type":238}},{"type":"Feature","geometry":{"type":"Point","coordinates":[146.23859,-30.19965]},"properties":{"name":"Mount Oxley","zone":"55","sid":"250628","district":"Barwon Darling","point_type":238}},{"type":"Feature","geometry":{"type":"Point","coordinates":[153.05228,-30.22084]},"properties":{"name":"Telstra Tower  Mount Coramba Orara East State Forest","zone":"56","sid":"7956","district":"Mid North Coast","point_type":238}},{"type":"Feature","geometry":{"type":"Point","coordinates":[153.10832,-30.25893]},"properties":{"name":"Radio 2Cs Site Sealy Lookout Drive Bruxner Park Coffs Harbour","zone":"56","sid":"201602","district":"Mid North Coast","point_type":238}},{"type":"Feature","geometry":{"type":"Point","coordinates":[150.15101,-30.28039]},"properties":{"name":"Pacific Grid  Governor Mountain Mt Kaputar National Park","zone":"56","sid":"6292","district":"Gwydir Namoi","point_type":238}},{"type":"Feature","geometry":{"type":"Point","coordinates":[152.91976,-30.33312]},"properties":{"name":"Countrywide Comms Site  Mt Wondurrigah","zone":"56","sid":"34885","district":"Mid North Coast","point_type":238}},{"type":"Feature","geometry":{"type":"Point","coordinates":[153.03195,-30.33466]},"properties":{"name":"Countrywide Comms Site Boambee State Forest Via Fridays Creek Road  Boambee","zone":"56","sid":"402344","district":"Mid North Coast","point_type":238}},{"type":"Feature","geometry":{"type":"Point","coordinates":[149.75721,-30.34612]},"properties":{"name":"Council Depot  Narrabri West","zone":"55","sid":"7085","district":"Gwydir Namoi","point_type":238}},{"type":"Feature","geometry":{"type":"Point","coordinates":[148.88945,-30.35366]},"properties":{"name":"Pilliga Ses (Dangar St.)","zone":"55","sid":"7058","district":"North West Team","point_type":238}},{"type":"Feature","geometry":{"type":"Point","coordinates":[148.48827,-30.37184]},"properties":{"name":"Comm Site  Come By Chance Via  Pilliga","zone":"55","sid":"201613","district":"North West Team","point_type":238}},{"type":"Feature","geometry":{"type":"Point","coordinates":[150.61099,-30.3775]},"properties":{"name":"Rfs Fire Shed  Maude St  Barraba","zone":"56","sid":"9001843","district":"Gwydir Namoi","point_type":238}},{"type":"Feature","geometry":{"type":"Point","coordinates":[151.60004,-30.37889]},"properties":{"name":"Comm Site Little Duval, Dumaresq","zone":"56","sid":"6681","district":"New England","point_type":238}},{"type":"Feature","geometry":{"type":"Point","coordinates":[150.24451,-30.40907]},"properties":{"name":"49 Rose Street  Wee Waa","zone":"56","sid":"134012","district":"Gwydir Namoi","point_type":238}},{"type":"Feature","geometry":{"type":"Point","coordinates":[152.39188,-30.48305]},"properties":{"name":"Nrtv Site Point Lookout  Grafton-Armidale Road  South Of Ebor","zone":"56","sid":"6685","district":"Lower North Coast","point_type":238}},{"type":"Feature","geometry":{"type":"Point","coordinates":[152.65227,-30.664]},"properties":{"name":"Bowra Sugarloaf Mountain","zone":"56","sid":"7769","district":"Lower North Coast","point_type":238}},{"type":"Feature","geometry":{"type":"Point","coordinates":[150.03983,-30.70614]},"properties":{"name":"Ses Merton\/Brent St Boggabri","zone":"56","sid":"7027","district":"Gwydir Namoi","point_type":238}},{"type":"Feature","geometry":{"type":"Point","coordinates":[151.48394,-30.73484]},"properties":{"name":"Harnham Hill Via Uralla","zone":"56","sid":"6782","district":"New England","point_type":238}},{"type":"Feature","geometry":{"type":"Point","coordinates":[152.91858,-30.81541]},"properties":{"name":"Fettel Mast Next Tio Fire Tower Mt Yarrahapinni","zone":"56","sid":"7645","district":"Mid North Coast","point_type":238}},{"type":"Feature","geometry":{"type":"Point","coordinates":[152.91858,-30.81541]},"properties":{"name":"Fettell Mast Wooden Pole Next To Fire Tower Mount Yarrahapinni","zone":"56","sid":"7645","district":"Lower North Coast","point_type":238}},{"type":"Feature","geometry":{"type":"Point","coordinates":[151.39467,-30.94659]},"properties":{"name":"Forest Hill","zone":"56","sid":"6718","district":"New England","point_type":238}},{"type":"Feature","geometry":{"type":"Point","coordinates":[148.37403,-30.94685]},"properties":{"name":"Fcc  Cnr Floyd & Aberford Sts  Coonamble","zone":"55","sid":"9001387","district":"North West Team","point_type":238}},{"type":"Feature","geometry":{"type":"Point","coordinates":[149.03744,-30.96396]},"properties":{"name":"Water Tower Barradine","zone":"55","sid":"250439","district":"Castlereagh","point_type":238}},{"type":"Feature","geometry":{"type":"Point","coordinates":[151.62979,-30.9668]},"properties":{"name":"Blakes Hill Walcha","zone":"56","sid":"41044","district":"New England","point_type":238}},{"type":"Feature","geometry":{"type":"Point","coordinates":[150.19093,-31.02593]},"properties":{"name":"Nsw Police Site  Black Jack Mountain  Gunnedah","zone":"56","sid":"6696","district":"Liverpool Range","point_type":238}},{"type":"Feature","geometry":{"type":"Point","coordinates":[152.57201,-31.04383]},"properties":{"name":"Boonanghi Trig  Boonanghi","zone":"56","sid":"7980","district":"Lower North Coast","point_type":238}},{"type":"Feature","geometry":{"type":"Point","coordinates":[150.95752,-31.07726]},"properties":{"name":"Independent Communications Site  Bald Hill  Tamworth","zone":"56","sid":"6479","district":"Gwydir Namoi","point_type":238}},{"type":"Feature","geometry":{"type":"Point","coordinates":[149.28447,-31.2701]},"properties":{"name":"Fire Control Centre  Gardener Street  Coonabarabran","zone":"55","sid":"250309","district":"Castlereagh","point_type":238}},{"type":"Feature","geometry":{"type":"Point","coordinates":[152.68141,-31.34294]},"properties":{"name":"Fettells Site  Mt Cairncross","zone":"56","sid":"7757","district":"Manning","point_type":238}},{"type":"Feature","geometry":{"type":"Point","coordinates":[149.02502,-31.34788]},"properties":{"name":"Advance Energy Site Needle Mountain Near Coonabarabran","zone":"55","sid":"11018","district":"Castlereagh","point_type":238}},{"type":"Feature","geometry":{"type":"Point","coordinates":[149.02502,-31.34788]},"properties":{"name":"Country Energy Site  Needle Mountain Near  Coonabarabran","zone":"55","sid":"11018","district":"North West Team","point_type":238}},{"type":"Feature","geometry":{"type":"Point","coordinates":[149.79321,-31.35969]},"properties":{"name":"Tambar Mountain","zone":"55","sid":"403796","district":"Castlereagh","point_type":238}},{"type":"Feature","geometry":{"type":"Point","coordinates":[151.20529,-31.44855]},"properties":{"name":"Yerrowin Trig Baldy Knob Near Nundle","zone":"56","sid":"6486","district":"Liverpool Range","point_type":238}},{"type":"Feature","geometry":{"type":"Point","coordinates":[145.87776,-31.56109]},"properties":{"name":"Cobar Shire Council Site The Peak Hillston Road Cobar","zone":"55","sid":"11120","district":"Far West","point_type":238}},{"type":"Feature","geometry":{"type":"Point","coordinates":[147.19336,-31.56591]},"properties":{"name":"Water Tower Bogan Street Nyngan","zone":"55","sid":"55546","district":"North West Team","point_type":238}},{"type":"Feature","geometry":{"type":"Point","coordinates":[149.83766,-31.68334]},"properties":{"name":"Oakey Trig Via Coolah","zone":"55","sid":"11282","district":"Castlereagh","point_type":238}},{"type":"Feature","geometry":{"type":"Point","coordinates":[147.83828,-31.69782]},"properties":{"name":"Warren Shire River Water Tower  Cnr Udora Rd And Oxley Hwy  Warren","zone":"55","sid":"39100","district":"North West Team","point_type":238}},{"type":"Feature","geometry":{"type":"Point","coordinates":[152.67252,-31.70745]},"properties":{"name":"Fettells Site  Middle Brother","zone":"56","sid":"7654","district":"Manning","point_type":238}},{"type":"Feature","geometry":{"type":"Point","coordinates":[151.71485,-31.72897]},"properties":{"name":"Npws Site Mount Myra","zone":"56","sid":"250533","district":"Manning","point_type":238}},{"type":"Feature","geometry":{"type":"Point","coordinates":[150.84288,-31.72946]},"properties":{"name":"Police And Ambulance Site Mount Helen","zone":"56","sid":"6404","district":"Liverpool Range","point_type":238}},{"type":"Feature","geometry":{"type":"Point","coordinates":[148.92542,-31.75656]},"properties":{"name":"Rfs Hut Via Gilgandra At  Wamboin Plains","zone":"55","sid":"202209","district":"Castlereagh","point_type":238}},{"type":"Feature","geometry":{"type":"Point","coordinates":[149.72548,-31.77777]},"properties":{"name":"Coolah Shire Council Site  Queensborough Near  Coolah","zone":"55","sid":"11283","district":"Castlereagh","point_type":238}},{"type":"Feature","geometry":{"type":"Point","coordinates":[152.18115,-31.93558]},"properties":{"name":"Broadcast Site  Mt Ganghat","zone":"56","sid":"150338","district":"Manning","point_type":238}},{"type":"Feature","geometry":{"type":"Point","coordinates":[150.92839,-31.95191]},"properties":{"name":"Energy Australia Site Black Mountain Off New England Highway Near Parkville","zone":"56","sid":"6370","district":"Liverpool Range","point_type":238}},{"type":"Feature","geometry":{"type":"Point","coordinates":[149.39338,-32.02328]},"properties":{"name":"Country Energy Site Dunedoo","zone":"55","sid":"11287","district":"Castlereagh","point_type":238}},{"type":"Feature","geometry":{"type":"Point","coordinates":[147.97619,-32.03415]},"properties":{"name":"Water Tower Cnr Harris & Goan Sts  Trangie","zone":"55","sid":"403628","district":"Orana","point_type":238}},{"type":"Feature","geometry":{"type":"Point","coordinates":[148.62809,-32.05497]},"properties":{"name":"Mogriguy","zone":"55","sid":"200896","district":"Orana","point_type":238}},{"type":"Feature","geometry":{"type":"Point","coordinates":[151.76563,-32.10849]},"properties":{"name":"Mt Berrico","zone":"56","sid":"7447","district":"Manning","point_type":238}},{"type":"Feature","geometry":{"type":"Point","coordinates":[150.78029,-32.14446]},"properties":{"name":"Scone Shire Council Site Rossgole Lookout Via Aberdeen","zone":"56","sid":"6364","district":"Liverpool Range","point_type":238}},{"type":"Feature","geometry":{"type":"Point","coordinates":[147.35561,-32.24355]},"properties":{"name":"Town Reservoir Tottenham","zone":"55","sid":"35432","district":"Mid Lachlan","point_type":238}},{"type":"Feature","geometry":{"type":"Point","coordinates":[148.92253,-32.25739]},"properties":{"name":"Cumbarella    Alton Park","zone":"55","sid":"200895","district":"Orana","point_type":238}},{"type":"Feature","geometry":{"type":"Point","coordinates":[152.11934,-32.25907]},"properties":{"name":"Cabbage Tree Mtn Via Bulahdelah","zone":"56","sid":"7461","district":"Manning","point_type":238}},{"type":"Feature","geometry":{"type":"Point","coordinates":[149.73794,-32.26867]},"properties":{"name":"Ulan Mine Powerhouse Repeater Site Ulan","zone":"55","sid":"11316","district":"Cudgegong","point_type":238}},{"type":"Feature","geometry":{"type":"Point","coordinates":[151.95768,-32.33068]},"properties":{"name":"Council Radio Site  Peppers Mountain","zone":"56","sid":"35249","district":"Manning","point_type":238}},{"type":"Feature","geometry":{"type":"Point","coordinates":[148.38019,-32.34637]},"properties":{"name":"Sappa Bulga Trig Sappa Bulga Mountain Near Dubbo","zone":"55","sid":"10792","district":"Orana","point_type":238}},{"type":"Feature","geometry":{"type":"Point","coordinates":[150.85777,-32.36496]},"properties":{"name":"Transgrid Site Mount Arthur Near Muswellbrook","zone":"56","sid":"6336","district":"Hunter","point_type":238}},{"type":"Feature","geometry":{"type":"Point","coordinates":[152.50057,-32.37962]},"properties":{"name":"Telstra Site  Macwood Rd  Smiths Lake","zone":"56","sid":"132540","district":"Manning","point_type":238}},{"type":"Feature","geometry":{"type":"Point","coordinates":[151.65059,-32.41265]},"properties":{"name":"Dungog Shire Council Site  Mount Richardson Near  Dungog","zone":"56","sid":"7417","district":"Lower Hunter","point_type":238}},{"type":"Feature","geometry":{"type":"Point","coordinates":[150.11381,-32.41771]},"properties":{"name":"Bylong Brigade Station","zone":"56","sid":"9003403","district":"Cudgegong","point_type":238}},{"type":"Feature","geometry":{"type":"Point","coordinates":[149.10292,-32.42724]},"properties":{"name":"Wellington Shire Council Site Mount Bodangora Near Wellington","zone":"55","sid":"10768","district":"Canobolas","point_type":238}},{"type":"Feature","geometry":{"type":"Point","coordinates":[151.4625,-32.4478]},"properties":{"name":"Raymond Terrace","zone":"0","district":"Lower Hunter","point_type":238}},{"type":"Feature","geometry":{"type":"Point","coordinates":[152.18324,-32.51916]},"properties":{"name":"Telstra Site Nerong State Forest No 49 Off Pacific Highway Nerong","zone":"56","sid":"250188","district":"Manning","point_type":238}},{"type":"Feature","geometry":{"type":"Point","coordinates":[149.87531,-32.53457]},"properties":{"name":"Botobolar","zone":"55","sid":"11313","district":"Cudgegong","point_type":238}},{"type":"Feature","geometry":{"type":"Point","coordinates":[151.52373,-32.53985]},"properties":{"name":"Dungog Shire Site At  Mount George","zone":"56","sid":"201511","district":"Lower Hunter","point_type":238}},{"type":"Feature","geometry":{"type":"Point","coordinates":[149.84176,-32.65438]},"properties":{"name":"Lue Brigade Station","zone":"55","sid":"9003402","district":"Cudgegong","point_type":238}},{"type":"Feature","geometry":{"type":"Point","coordinates":[147.14332,-32.65804]},"properties":{"name":"Lachlan Shire Council Site  Boona Mt","zone":"55","sid":"11384","district":"Mid Lachlan","point_type":238}},{"type":"Feature","geometry":{"type":"Point","coordinates":[151.82878,-32.66132]},"properties":{"name":"Fire Tower Wallaroo Hill  Off Pacific Hwy 12Km North Of  Raymond Terrace","zone":"56","sid":"6145","district":"Lower Hunter","point_type":238}},{"type":"Feature","geometry":{"type":"Point","coordinates":[152.13018,-32.73313]},"properties":{"name":"Gencom Site  Gan Gan Hill Near  Nelson Bay","zone":"56","sid":"6055","district":"Lower Hunter","point_type":238}},{"type":"Feature","geometry":{"type":"Point","coordinates":[151.2218,-32.76512]},"properties":{"name":"Energy Australia Site Brokenback Near Cessnock","zone":"56","sid":"6084","district":"Hunter","point_type":238}},{"type":"Feature","geometry":{"type":"Point","coordinates":[149.7495,-32.8082]},"properties":{"name":"Communal Site Mt Bocoble","zone":"55","sid":"35200","district":"Cudgegong","point_type":238}},{"type":"Feature","geometry":{"type":"Point","coordinates":[147.56297,-32.81562]},"properties":{"name":"Mt Gillenbine Near Trundle","zone":"55","sid":"11385","district":"Canobolas","point_type":238}},{"type":"Feature","geometry":{"type":"Point","coordinates":[151.53689,-32.89213]},"properties":{"name":"Transgrid Site Mount Sugarloaf Via Newcastle","zone":"56","sid":"5840","district":"Hunter","point_type":238}},{"type":"Feature","geometry":{"type":"Point","coordinates":[148.3804,-32.90128]},"properties":{"name":"Reece Comms Site  Kadina Trig","zone":"55","sid":"401902","district":"Canobolas","point_type":238}},{"type":"Feature","geometry":{"type":"Point","coordinates":[149.13975,-32.91403]},"properties":{"name":"Spot Height 777 Metres  Stores Creek","zone":"55","sid":"34882","district":"Canobolas","point_type":238}},{"type":"Feature","geometry":{"type":"Point","coordinates":[151.1401,-32.9397]},"properties":{"name":"Wollombi Bushfire Brigade Site  Maitland Road  Wollombi","zone":"56","sid":"250109","district":"Hunter","point_type":238}},{"type":"Feature","geometry":{"type":"Point","coordinates":[149.58132,-33.03353]},"properties":{"name":"Telstra Site Monkey Hill","zone":"55","sid":"34905","district":"Chifley","point_type":238}},{"type":"Feature","geometry":{"type":"Point","coordinates":[151.26343,-33.04564]},"properties":{"name":"State Forest Site  Mt Warrawolong","zone":"56","sid":"201389","district":"Hunter","point_type":238}},{"type":"Feature","geometry":{"type":"Point","coordinates":[147.1498,-33.08957]},"properties":{"name":"State Emergency Service Depot  Marsden St","zone":"55","sid":"51265","district":"Mid Lachlan","point_type":238}},{"type":"Feature","geometry":{"type":"Point","coordinates":[150.04662,-33.11236]},"properties":{"name":"Airley Turret","zone":"56","sid":"202846","district":"Chifley","point_type":238}},{"type":"Feature","geometry":{"type":"Point","coordinates":[148.17273,-33.11868]},"properties":{"name":"Council Site Near Newell Hwy 1Km North Of Town Parkes","zone":"55","sid":"100805","district":"Canobolas","point_type":238}},{"type":"Feature","geometry":{"type":"Point","coordinates":[151.57987,-33.14593]},"properties":{"name":"Gwandalan Bush Fire Station","zone":"56","sid":"200440","district":"Central Coast","point_type":238}},{"type":"Feature","geometry":{"type":"Point","coordinates":[151.45776,-33.14721]},"properties":{"name":"Russell Trig","zone":"56","sid":"250338","district":"Hunter","point_type":238}},{"type":"Feature","geometry":{"type":"Point","coordinates":[149.26531,-33.29019]},"properties":{"name":"Rfs Site Mt Ragan","zone":"55","sid":"403010","district":"Canobolas","point_type":238}},{"type":"Feature","geometry":{"type":"Point","coordinates":[151.23605,-33.29142]},"properties":{"name":"Central Mangrove Mtn Rd Central Mangrove","zone":"56","sid":"5569","district":"Gosford","point_type":238}},{"type":"Feature","geometry":{"type":"Point","coordinates":[151.36577,-33.29612]},"properties":{"name":"Fowlers Fire Tower  Scaddens Ridge","zone":"56","sid":"5707","district":"Central Coast","point_type":238}},{"type":"Feature","geometry":{"type":"Point","coordinates":[148.98116,-33.34543]},"properties":{"name":"Transgrid Tower  Mt Canobolas","zone":"55","sid":"10712","district":"Canobolas","point_type":238}},{"type":"Feature","geometry":{"type":"Point","coordinates":[146.21475,-33.36725]},"properties":{"name":"Dept Of Water Resources Site  Mt Bowen","zone":"55","sid":"9914","district":"Mid Lachlan","point_type":238}},{"type":"Feature","geometry":{"type":"Point","coordinates":[146.77853,-33.38]},"properties":{"name":"Gorman Hill","zone":"55","sid":"34918","district":"Mid Lachlan","point_type":238}},{"type":"Feature","geometry":{"type":"Point","coordinates":[151.29459,-33.3996]},"properties":{"name":"Reeves Rd Somersby","zone":"56","sid":"34876","district":"Central Coast","point_type":238}},{"type":"Feature","geometry":{"type":"Point","coordinates":[150.98375,-33.40034]},"properties":{"name":"Rfs Site Old Northern Rd  Wisemans Ferry","zone":"56","sid":"10281","district":"Baulkham Hills","point_type":238}},{"type":"Feature","geometry":{"type":"Point","coordinates":[147.33664,-33.41402]},"properties":{"name":"Manna Mountain Via Forbes","zone":"55","sid":"9913","district":"Mid Lachlan","point_type":238}},{"type":"Feature","geometry":{"type":"Point","coordinates":[151.40182,-33.45171]},"properties":{"name":"Kincumber Mountain Reserve  Island View Drive Green Point","zone":"56","sid":"51096","district":"Gosford","point_type":238}},{"type":"Feature","geometry":{"type":"Point","coordinates":[149.54643,-33.46055]},"properties":{"name":"Council Site Mt Panorama","zone":"55","sid":"10575","district":"Chifley","point_type":238}},{"type":"Feature","geometry":{"type":"Point","coordinates":[149.98659,-33.47256]},"properties":{"name":"Mt Lambie","zone":"55","sid":"10593","district":"Chifley","point_type":238}},{"type":"Feature","geometry":{"type":"Point","coordinates":[150.14921,-33.51462]},"properties":{"name":"Police Site Hassans Walls","zone":"56","sid":"10475","district":"Chifley","point_type":238}},{"type":"Feature","geometry":{"type":"Point","coordinates":[150.61899,-33.53395]},"properties":{"name":"Burralow Rd Kurrajong Heights","zone":"56","sid":"10147","district":"Baulkham Hills","point_type":238}},{"type":"Feature","geometry":{"type":"Point","coordinates":[150.26624,-33.55485]},"properties":{"name":"Charlies Rd  Mt Tomah","zone":"56","sid":"204064","district":"Blue Mountains","point_type":238}},{"type":"Feature","geometry":{"type":"Point","coordinates":[149.32495,-33.57167]},"properties":{"name":"Commsite  Clarke Trig","zone":"55","sid":"10562","district":"Canobolas","point_type":238}},{"type":"Feature","geometry":{"type":"Point","coordinates":[151.18328,-33.57998]},"properties":{"name":"Council\/Telstra Site Pacific Highway Cowan","zone":"56","sid":"4228","district":"Warringah\/Hornsby","point_type":238}},{"type":"Feature","geometry":{"type":"Point","coordinates":[147.78077,-33.58744]},"properties":{"name":"Mt Tallabung 30Km South West Of Forbes","zone":"55","sid":"11377","district":"Canobolas","point_type":238}},{"type":"Feature","geometry":{"type":"Point","coordinates":[151.31241,-33.64513]},"properties":{"name":"Water Bd Plateau Road Bilgola","zone":"56","sid":"51811","district":"Warringah\/Hornsby","point_type":238}},{"type":"Feature","geometry":{"type":"Point","coordinates":[149.17952,-33.64807]},"properties":{"name":"Reece Communications Site Mt Macquarie","zone":"55","sid":"10652","district":"Canobolas","point_type":238}},{"type":"Feature","geometry":{"type":"Point","coordinates":[151.22099,-33.6943]},"properties":{"name":"Bush Fire Brigade Tower  Emergency Services Centre  Kamber Road  Terrey Hills","zone":"56","sid":"4245","district":"Warringah\/Hornsby","point_type":238}},{"type":"Feature","geometry":{"type":"Point","coordinates":[151.04515,-33.70107]},"properties":{"name":"Quarry Rd Bushfire Hq  Dural","zone":"56","sid":"4947","district":"Warringah\/Hornsby","point_type":238}},{"type":"Feature","geometry":{"type":"Point","coordinates":[149.83795,-33.70453]},"properties":{"name":"Translator And Gsm Tower Falls Hill Rockley Road Oberon","zone":"55","sid":"150294","district":"Chifley","point_type":238}},{"type":"Feature","geometry":{"type":"Point","coordinates":[150.29913,-33.71157]},"properties":{"name":"Rfs Site, Valley Rd Katoomba","zone":"56","sid":"10332","district":"Chifley","point_type":238}},{"type":"Feature","geometry":{"type":"Point","coordinates":[151.0041,-33.73395]},"properties":{"name":"340 Old Northern Rd Rogans Hill","zone":"56","sid":"4906","district":"Baulkham Hills","point_type":238}},{"type":"Feature","geometry":{"type":"Point","coordinates":[151.09855,-33.73545]},"properties":{"name":"Sydney Adventist Hospital 185 Fox Valley Rd Wahroonga","zone":"56","sid":"4178","district":"Warringah\/Hornsby","point_type":238}},{"type":"Feature","geometry":{"type":"Point","coordinates":[150.62698,-33.7766]},"properties":{"name":"Water Tank Tower Cnr Hodgson & Emu Rds Glenbrook","zone":"56","sid":"10251","district":"Sydney Basin","point_type":238}},{"type":"Feature","geometry":{"type":"Point","coordinates":[150.25935,-33.7893]},"properties":{"name":"Bushwalkers Hill Narrow Neck","zone":"56","sid":"10386","district":"Blue Mountains","point_type":238}},{"type":"Feature","geometry":{"type":"Point","coordinates":[151.27659,-33.79731]},"properties":{"name":"Fairlight Nswfb Station","zone":"56","sid":"402247","district":"Warringah\/Hornsby","point_type":238}},{"type":"Feature","geometry":{"type":"Point","coordinates":[150.02402,-33.8205]},"properties":{"name":"Rfs Shed Jenolan Caves","zone":"56","sid":"403787","district":"Chifley","point_type":238}},{"type":"Feature","geometry":{"type":"Point","coordinates":[148.15895,-33.82392]},"properties":{"name":"Npws Site Warraderry Via Grenfell","zone":"55","sid":"200506","district":"Canobolas","point_type":238}},{"type":"Feature","geometry":{"type":"Point","coordinates":[148.69663,-33.83032]},"properties":{"name":"Cowra Shire Site Bellevue Hill","zone":"55","sid":"34531","district":"Canobolas","point_type":238}},{"type":"Feature","geometry":{"type":"Point","coordinates":[148.37791,-33.83339]},"properties":{"name":"Cowra Rfs Site Warumba Rd Conimbla Range","zone":"55","sid":"202461","district":"Canobolas","point_type":238}},{"type":"Feature","geometry":{"type":"Point","coordinates":[149.45054,-33.85023]},"properties":{"name":"Mt Ryan","zone":"55","sid":"100877","district":"Chifley","point_type":238}},{"type":"Feature","geometry":{"type":"Point","coordinates":[150.85027,-33.86302]},"properties":{"name":"Motorola Site Lot 69 Border Road Horsley Park","zone":"56","sid":"5013","district":"Sydney Basin","point_type":238}},{"type":"Feature","geometry":{"type":"Point","coordinates":[146.69901,-33.86336]},"properties":{"name":"Mt Narriah Via West Wyalong","zone":"55","sid":"9910","district":"Bland Temora County","point_type":238}},{"type":"Feature","geometry":{"type":"Point","coordinates":[147.38102,-33.87]},"properties":{"name":"Via Wyalong Booberoi Hills","zone":"55","sid":"34780","district":"Bland Temora County","point_type":238}},{"type":"Feature","geometry":{"type":"Point","coordinates":[149.84839,-33.89961]},"properties":{"name":"Shooters Hill","zone":"55","sid":"10420","district":"Chifley","point_type":238}},{"type":"Feature","geometry":{"type":"Point","coordinates":[150.57442,-33.93264]},"properties":{"name":"Rural Fire Service Site  Silverdale","zone":"56","sid":"201362","district":"Highlands","point_type":238}},{"type":"Feature","geometry":{"type":"Point","coordinates":[150.8212,-33.99636]},"properties":{"name":"Optus Site Varroville Reserve Off St Davids Road   Varroville","zone":"56","sid":"131349","district":"Highlands","point_type":238}},{"type":"Feature","geometry":{"type":"Point","coordinates":[142.01353,-34.08602]},"properties":{"name":"Major Radio Site  Keenans Drive  Dareton","zone":"54","sid":"501511","district":"Lower Western","point_type":238}},{"type":"Feature","geometry":{"type":"Point","coordinates":[151.0151,-34.08642]},"properties":{"name":"Heathcote Fire Station Bottle Forest Road Heathcote","zone":"56","sid":"5521","district":"Sydney Basin","point_type":238}},{"type":"Feature","geometry":{"type":"Point","coordinates":[142.04312,-34.09912]},"properties":{"name":"Dareton Fcc","zone":"54","sid":"402114","district":"Lower Western","point_type":238}},{"type":"Feature","geometry":{"type":"Point","coordinates":[150.6696,-34.14881]},"properties":{"name":"Wollondilly Council Rfs Site Lot 3 Mount Hercules Rd Razorback Range","zone":"56","sid":"34904","district":"Highlands","point_type":238}},{"type":"Feature","geometry":{"type":"Point","coordinates":[149.23801,-34.16295]},"properties":{"name":"(12 Km Se Of Bigga) Snowy Mountain","zone":"55","sid":"9534","district":"Southern Tablelands","point_type":238}},{"type":"Feature","geometry":{"type":"Point","coordinates":[148.14216,-34.18481]},"properties":{"name":"Council Site Thuddungra Hill","zone":"55","sid":"201655","district":"South West Group","point_type":238}},{"type":"Feature","geometry":{"type":"Point","coordinates":[150.95343,-34.26496]},"properties":{"name":"Transgrid Tower   Maddens Plains","zone":"56","sid":"8783","district":"Illawarra","point_type":238}},{"type":"Feature","geometry":{"type":"Point","coordinates":[146.05245,-34.278]},"properties":{"name":"Scenic Hill Griffith","zone":"55","sid":"34925","district":"MIA Zone","point_type":238}},{"type":"Feature","geometry":{"type":"Point","coordinates":[142.39044,-34.32259]},"properties":{"name":"Mallee Cliffs","zone":"54","sid":"11840","district":"Lower Western","point_type":238}},{"type":"Feature","geometry":{"type":"Point","coordinates":[148.27687,-34.37465]},"properties":{"name":"Shire Council Site Boundary Rd  7Km Sse Of Young","zone":"55","sid":"100385","district":"South West Group","point_type":238}},{"type":"Feature","geometry":{"type":"Point","coordinates":[146.92712,-34.37633]},"properties":{"name":"Welman Trig  Via Ardlethan","zone":"55","sid":"34920","district":"Riverina","point_type":238}},{"type":"Feature","geometry":{"type":"Point","coordinates":[149.47286,-34.38653]},"properties":{"name":"Laggan Trig (8 Km Nth Of Crookwell)  Redground","zone":"55","sid":"9538","district":"Southern Tablelands","point_type":238}},{"type":"Feature","geometry":{"type":"Point","coordinates":[150.85662,-34.40267]},"properties":{"name":"Wollongong City Council Site Mount Keira","zone":"56","sid":"204040","district":"Illawarra","point_type":238}},{"type":"Feature","geometry":{"type":"Point","coordinates":[149.89063,-34.40883]},"properties":{"name":"Mulwaree Shire Council Site  Bannaby Hill","zone":"55","sid":"201622","district":"Southern Tablelands","point_type":238}},{"type":"Feature","geometry":{"type":"Point","coordinates":[148.74878,-34.42337]},"properties":{"name":"Radio Hut Mt Canemumbola","zone":"55","sid":"9547","district":"South West Group","point_type":238}},{"type":"Feature","geometry":{"type":"Point","coordinates":[144.3487,-34.45896]},"properties":{"name":"Maude","zone":"55","sid":"201610","district":"Lower Western","point_type":238}},{"type":"Feature","geometry":{"type":"Point","coordinates":[144.3487,-34.45896]},"properties":{"name":"Country Energy Site Maude","zone":"55","sid":"201610","district":"Mid West","point_type":238}},{"type":"Feature","geometry":{"type":"Point","coordinates":[150.42693,-34.46668]},"properties":{"name":"Gib Security Hut 30 Metres North Of Gibraltar Trig Point Mount Gibraltar","zone":"56","sid":"9369","district":"Highlands","point_type":238}},{"type":"Feature","geometry":{"type":"Point","coordinates":[144.83361,-34.49963]},"properties":{"name":"Hay Ses Dunera St Hay","zone":"55","sid":"204231","district":"Mid West","point_type":238}},{"type":"Feature","geometry":{"type":"Point","coordinates":[143.59509,-34.52373]},"properties":{"name":"13 Km North Of Balranald","zone":"54","sid":"35591","district":"Lower Western","point_type":238}},{"type":"Feature","geometry":{"type":"Point","coordinates":[147.78019,-34.52898]},"properties":{"name":"Gogobilly Hill","zone":"55","sid":"9909","district":"Bland Temora County","point_type":238}},{"type":"Feature","geometry":{"type":"Point","coordinates":[142.79159,-34.54267]},"properties":{"name":"Mrcc Site  Euston","zone":"54","sid":"35513","district":"Lower Western","point_type":238}},{"type":"Feature","geometry":{"type":"Point","coordinates":[146.60892,-34.5533]},"properties":{"name":"Eacom Site Square Head","zone":"55","sid":"9893","district":"MIA Zone","point_type":238}},{"type":"Feature","geometry":{"type":"Point","coordinates":[150.77449,-34.57295]},"properties":{"name":"Albion Park Fcc","zone":"56","sid":"201951","district":"Illawarra","point_type":238}},{"type":"Feature","geometry":{"type":"Point","coordinates":[150.2076,-34.58121]},"properties":{"name":"Transgrid Site Ellsmore","zone":"56","sid":"9429","district":"Highlands","point_type":238}},{"type":"Feature","geometry":{"type":"Point","coordinates":[148.98037,-34.61177]},"properties":{"name":"Eastern Pipelines Site Mt Pudman","zone":"55","sid":"9502","district":"Southern Tablelands","point_type":238}},{"type":"Feature","geometry":{"type":"Point","coordinates":[150.69558,-34.62025]},"properties":{"name":"Illawarra Communications Site Knights Hill","zone":"56","sid":"9439","district":"Illawarra","point_type":238}},{"type":"Feature","geometry":{"type":"Point","coordinates":[148.03404,-34.6326]},"properties":{"name":"Parker St Cootamundra (Ses)","zone":"55","sid":"51267","district":"South West Group","point_type":238}},{"type":"Feature","geometry":{"type":"Point","coordinates":[150.79022,-34.69918]},"properties":{"name":"Tower 4 Saddleback Mountain Kiama","zone":"56","sid":"8949","district":"Illawarra","point_type":238}},{"type":"Feature","geometry":{"type":"Point","coordinates":[150.48329,-34.70566]},"properties":{"name":"Sydney Water Control Structure Kangaroo Valley","zone":"56","sid":"200495","district":"Shoalhaven","point_type":238}},{"type":"Feature","geometry":{"type":"Point","coordinates":[149.76216,-34.75966]},"properties":{"name":"Sra Site  Mt Gray","zone":"55","sid":"9492","district":"Southern Tablelands","point_type":238}},{"type":"Feature","geometry":{"type":"Point","coordinates":[150.576,-34.80184]},"properties":{"name":"Cambewarra Lookout Cambewarra Mountain Via Bomaderry","zone":"56","sid":"9100","district":"Shoalhaven","point_type":238}},{"type":"Feature","geometry":{"type":"Point","coordinates":[147.1957,-34.80726]},"properties":{"name":"Water Tower Coolamon","zone":"55","sid":"35010","district":"Riverina","point_type":238}},{"type":"Feature","geometry":{"type":"Point","coordinates":[148.72736,-34.82009]},"properties":{"name":"Black Trig","zone":"55","sid":"9519","district":"Southern Tablelands","point_type":238}},{"type":"Feature","geometry":{"type":"Point","coordinates":[147.90027,-34.8221]},"properties":{"name":"Crest Site Mt Ulandra","zone":"55","sid":"9956","district":"South West Group","point_type":238}},{"type":"Feature","geometry":{"type":"Point","coordinates":[149.59717,-35.04292]},"properties":{"name":"Council Site  Cowley Hills","zone":"55","sid":"201623","district":"Southern Tablelands","point_type":238}},{"type":"Feature","geometry":{"type":"Point","coordinates":[150.67728,-35.08664]},"properties":{"name":"Vincentia Water Tower St George Avenue  Vincentia","zone":"56","sid":"131105","district":"Shoalhaven","point_type":238}},{"type":"Feature","geometry":{"type":"Point","coordinates":[149.08555,-35.09583]},"properties":{"name":"Pacific Power Site Mt Spring","zone":"55","sid":"9532","district":"Southern Tablelands","point_type":238}},{"type":"Feature","geometry":{"type":"Point","coordinates":[150.03687,-35.10104]},"properties":{"name":"Transgrid Site Meangora Trig Nerriga","zone":"56","sid":"9719","district":"Lake George","point_type":238}},{"type":"Feature","geometry":{"type":"Point","coordinates":[148.68153,-35.10753]},"properties":{"name":"Cookmundoon Station Wee Jasper","zone":"55","sid":"34896","district":"Southern Tablelands","point_type":238}},{"type":"Feature","geometry":{"type":"Point","coordinates":[146.78931,-35.10977]},"properties":{"name":"Police Site Galore Hill","zone":"55","sid":"9895","district":"Riverina","point_type":238}},{"type":"Feature","geometry":{"type":"Point","coordinates":[148.12014,-35.1101]},"properties":{"name":"Gundagai Trig  Gundagai","zone":"55","sid":"38999","district":"Riverina Highlands","point_type":238}},{"type":"Feature","geometry":{"type":"Point","coordinates":[147.32836,-35.13052]},"properties":{"name":"Wagga Fcc","zone":"55","sid":"204056","district":"Riverina","point_type":238}},{"type":"Feature","geometry":{"type":"Point","coordinates":[150.26388,-35.16695]},"properties":{"name":"Council Site Bhundoo Hill Sassafras","zone":"56","sid":"201685","district":"Shoalhaven","point_type":238}},{"type":"Feature","geometry":{"type":"Point","coordinates":[149.68588,-35.19151]},"properties":{"name":"Bushfire Station     Golspie","zone":"55","sid":"201227","district":"Southern Tablelands","point_type":238}},{"type":"Feature","geometry":{"type":"Point","coordinates":[150.43677,-35.24673]},"properties":{"name":"Lake Conjola National Park (Off Cornfields Lane) Yatteyattah","zone":"56","sid":"201625","district":"Shoalhaven","point_type":238}},{"type":"Feature","geometry":{"type":"Point","coordinates":[149.43904,-35.25661]},"properties":{"name":"Gibraltar Street Bungendore (Ses)","zone":"55","sid":"9714","district":"Lake George","point_type":238}},{"type":"Feature","geometry":{"type":"Point","coordinates":[146.37989,-35.27022]},"properties":{"name":"Cullivel","zone":"55","sid":"39024","district":"Riverina","point_type":238}},{"type":"Feature","geometry":{"type":"Point","coordinates":[147.42883,-35.29066]},"properties":{"name":"Mt Flakney","zone":"55","sid":"102257","district":"Riverina","point_type":238}},{"type":"Feature","geometry":{"type":"Point","coordinates":[148.06606,-35.31066]},"properties":{"name":"Adelong Fire Shed","zone":"55","sid":"????","district":"Riverina Highlands","point_type":238}},{"type":"Feature","geometry":{"type":"Point","coordinates":[149.23954,-35.34438]},"properties":{"name":"Fire Control Centre Ellerton Street Queanbeyan","zone":"55","sid":"205274","district":"Lake George","point_type":238}},{"type":"Feature","geometry":{"type":"Point","coordinates":[148.21514,-35.36202]},"properties":{"name":"South Site Wereboldera Trig Via Tumut","zone":"55","sid":"9949","district":"Riverina Highlands","point_type":238}},{"type":"Feature","geometry":{"type":"Point","coordinates":[149.12401,-35.38272]},"properties":{"name":"Isaacs Ridge","zone":"55","sid":"9621","district":"Lake George","point_type":238}},{"type":"Feature","geometry":{"type":"Point","coordinates":[150.31973,-35.45412]},"properties":{"name":"Elcom Hut Trig Boyne","zone":"56","sid":"8999","district":"Shoalhaven","point_type":238}},{"type":"Feature","geometry":{"type":"Point","coordinates":[149.99423,-35.48152]},"properties":{"name":"Mt Budawang","zone":"55","sid":"9728","district":"Lake George","point_type":238}},{"type":"Feature","geometry":{"type":"Point","coordinates":[149.99423,-35.48152]},"properties":{"name":"Fire Tower Mt Budawang","zone":"55","sid":"9728","district":"Far South Coast","point_type":238}},{"type":"Feature","geometry":{"type":"Point","coordinates":[147.61081,-35.49568]},"properties":{"name":"Mt Burngoogie","zone":"55","sid":"9898","district":"Hume\/ Albury","point_type":238}},{"type":"Feature","geometry":{"type":"Point","coordinates":[148.00873,-35.49707]},"properties":{"name":"Fire Tower Kendall","zone":"55","sid":"9963","district":"Riverina Highlands","point_type":238}},{"type":"Feature","geometry":{"type":"Point","coordinates":[148.77139,-35.53111]},"properties":{"name":"Mt Ginini","zone":"55","sid":"11542","district":"Lake George","point_type":238}},{"type":"Feature","geometry":{"type":"Point","coordinates":[149.51669,-35.53218]},"properties":{"name":"Mt Cronin","zone":"55","sid":"100406","district":"Lake George","point_type":238}},{"type":"Feature","geometry":{"type":"Point","coordinates":[146.16572,-35.54258]},"properties":{"name":"Oaklands","zone":"55","sid":"51258","district":"Riverina","point_type":238}},{"type":"Feature","geometry":{"type":"Point","coordinates":[150.37649,-35.55802]},"properties":{"name":"Kioloa","zone":"55","sid":"TBA","district":"Shoalhaven","point_type":238}},{"type":"Feature","geometry":{"type":"Point","coordinates":[147.16937,-35.55842]},"properties":{"name":"Peddles Hill Via Culcairn","zone":"55","sid":"9877","district":"Hume\/ Albury","point_type":238}},{"type":"Feature","geometry":{"type":"Point","coordinates":[149.17638,-35.56892]},"properties":{"name":"Win Site Williamsdale (4 Km E Of Williamsdale)  Gibraltar Hill","zone":"55","sid":"100638","district":"Lake George","point_type":238}},{"type":"Feature","geometry":{"type":"Point","coordinates":[150.21995,-35.63239]},"properties":{"name":"Benandarah Trig Big Bit Road Boyne State Forest","zone":"56","sid":"201617","district":"Far South Coast","point_type":238}},{"type":"Feature","geometry":{"type":"Point","coordinates":[149.91065,-35.66274]},"properties":{"name":"Boundary Mountain","zone":"55","sid":"9727","district":"Far South Coast","point_type":238}},{"type":"Feature","geometry":{"type":"Point","coordinates":[146.58924,-35.72374]},"properties":{"name":"Goombargana Hill Via Walbundrie","zone":"55","sid":"9819","district":"Hume\/ Albury","point_type":238}},{"type":"Feature","geometry":{"type":"Point","coordinates":[145.78269,-35.79492]},"properties":{"name":"Stony Hill Via Berrigan","zone":"55","sid":"9937","district":"Hume\/ Albury","point_type":238}},{"type":"Feature","geometry":{"type":"Point","coordinates":[147.25279,-35.8037]},"properties":{"name":"Mt Raven","zone":"55","sid":"9818","district":"Hume\/ Albury","point_type":238}},{"type":"Feature","geometry":{"type":"Point","coordinates":[147.94833,-35.89967]},"properties":{"name":"Mt Ikes Via  Tumbarumba","zone":"55","sid":"9899","district":"Riverina Highlands","point_type":238}},{"type":"Feature","geometry":{"type":"Point","coordinates":[150.07114,-35.9123]},"properties":{"name":"Rfs Site  Control Centre Campbell St  Moruya","zone":"56","sid":"8981","district":"Far South Coast","point_type":238}},{"type":"Feature","geometry":{"type":"Point","coordinates":[149.02483,-35.98514]},"properties":{"name":"Cooma-Monaro Shire\/Obrien Site Mt Roberts","zone":"55","sid":"9731","district":"Monaro","point_type":238}},{"type":"Feature","geometry":{"type":"Point","coordinates":[146.96038,-36.02179]},"properties":{"name":"Police Site One Tree Hill Albury","zone":"55","sid":"9812","district":"Hume\/ Albury","point_type":238}},{"type":"Feature","geometry":{"type":"Point","coordinates":[148.03332,-36.09167]},"properties":{"name":"Greg Greg Hill","zone":"55","sid":"39000","district":"Riverina Highlands","point_type":238}},{"type":"Feature","geometry":{"type":"Point","coordinates":[148.54985,-36.10752]},"properties":{"name":"Bald Hill Via Eucumbene","zone":"55","sid":"9771","district":"Monaro","point_type":238}},{"type":"Feature","geometry":{"type":"Point","coordinates":[148.88237,-36.19245]},"properties":{"name":"Wambrook Trig","zone":"55","sid":"9778","district":"Monaro","point_type":238}},{"type":"Feature","geometry":{"type":"Point","coordinates":[148.125,-36.2171]},"properties":{"name":"Khancoban Fire Station","zone":"55","sid":"???","district":"Riverina Highlands","point_type":238}},{"type":"Feature","geometry":{"type":"Point","coordinates":[150.22613,-36.2536]},"properties":{"name":"Head Keepers Quarters Montague Island","zone":"56","sid":"9136","district":"Far South Coast","point_type":238}},{"type":"Feature","geometry":{"type":"Point","coordinates":[149.78227,-36.30513]},"properties":{"name":"Wandella Trig  Peak Alone","zone":"55","sid":"9155","district":"Far South Coast","point_type":238}},{"type":"Feature","geometry":{"type":"Point","coordinates":[148.39175,-36.40199]},"properties":{"name":"Quad Chairlift Top Terminal  Back Perisher Mtn","zone":"55","sid":"201689","district":"Monaro","point_type":238}},{"type":"Feature","geometry":{"type":"Point","coordinates":[149.86495,-36.5465]},"properties":{"name":"Broadcast Site  Mumbulla Mountain","zone":"55","sid":"9164","district":"Far South Coast","point_type":238}},{"type":"Feature","geometry":{"type":"Point","coordinates":[149.72689,-36.86601]},"properties":{"name":"Commsite  Wolumla Peak","zone":"55","sid":"9152","district":"Far South Coast","point_type":238}},{"type":"Feature","geometry":{"type":"Point","coordinates":[149.88863,-37.01273]},"properties":{"name":"Bimmil Hill","zone":"55","sid":"100712","district":"Far South Coast","point_type":238}},{"type":"Feature","geometry":{"type":"Point","coordinates":[149.70944,-37.30315]},"properties":{"name":"Timbillica Hill Via  Timbillica","zone":"55","sid":"9151","district":"Far South Coast","point_type":238}}]}