{"type":"FeatureCollection","features":[{"type":"Feature","geometry":{"type":"Point","coordinates":[138.52444,-34.94694]},"properties":{"n":"ADELAIDE","id":"AD","t":"VOR","f":"116.400 MHz","ch":null,"rng":null,"e":7}},{"type":"Feature","geometry":{"type":"Point","coordinates":[117.81111,-34.95222]},"properties":{"n":"ALBANY","id":"ABA","t":"NDB","f":"240.000 kHz","ch":null,"rng":100,"e":68}},{"type":"Feature","geometry":{"type":"Point","coordinates":[133.87833,-23.79278]},"properties":{"n":"ALICE SPRINGS","id":"AS","t":"VOR/DME","f":"115.900 MHz","ch":"106X","rng":110,"e":548}},{"type":"Feature","geometry":{"type":"Point","coordinates":[133.87361,-23.77806]},"properties":{"n":"ALICE SPRINGS","id":"AS","t":"NDB","f":"335.000 kHz","ch":null,"rng":null,"e":554}},{"type":"Feature","geometry":{"type":"Point","coordinates":[152.71611,-27.64139]},"properties":{"n":"AMBERLEY","id":"AMB","t":"TACAN","f":"108.100 MHz","ch":"18X","rng":null,"e":27}},{"type":"Feature","geometry":{"type":"Point","coordinates":[151.615,-30.52722]},"properties":{"n":"ARMIDALE","id":"ARM","t":"NDB","f":"401.000 kHz","ch":null,"rng":35,"e":1083}},{"type":"Feature","geometry":{"type":"Point","coordinates":[144.45889,-38.04917]},"properties":{"n":"AVALON","id":"AV","t":"VOR/DME","f":"116.100 MHz","ch":"108X","rng":null,"e":10}},{"type":"Feature","geometry":{"type":"Point","coordinates":[130.97472,-25.17278]},"properties":{"n":"AYERS ROCK","id":"AYE","t":"NDB","f":"233.000 kHz","ch":null,"rng":100,"e":492}},{"type":"Feature","geometry":{"type":"Point","coordinates":[130.85694,-12.40667]},"properties":{"n":"BAGOT","id":"BGT","t":"NDB","f":"308.000 kHz","ch":null,"rng":50,"e":16}},{"type":"Feature","geometry":{"type":"Point","coordinates":[149.65694,-33.41417]},"properties":{"n":"BATHURST","id":"BTH","t":"NDB","f":"383.000 kHz","ch":null,"rng":30,"e":759}},{"type":"Feature","geometry":{"type":"Point","coordinates":[139.35333,-25.89639]},"properties":{"n":"BIRDSVILLE","id":"BDV","t":"NDB","f":"413.000 kHz","ch":null,"rng":40,"e":47}},{"type":"Feature","geometry":{"type":"Point","coordinates":[139.90694,-22.91472]},"properties":{"n":"BOULIA","id":"BOU","t":"NDB","f":"398.000 kHz","ch":null,"rng":75,"e":34}},{"type":"Feature","geometry":{"type":"Point","coordinates":[153.13917,-27.36583]},"properties":{"n":"BRISBANE","id":"BN","t":"VOR/DME","f":"113.200 MHz","ch":"79X","rng":null,"e":10}},{"type":"Feature","geometry":{"type":"Point","coordinates":[141.48,-32.00056]},"properties":{"n":"BROKEN HILL","id":"BHI","t":"VOR/DME","f":"114.200 MHz","ch":"89X","rng":150,"e":250}},{"type":"Feature","geometry":{"type":"Point","coordinates":[141.46833,-31.99194]},"properties":{"n":"BROKEN HILL","id":"BHI","t":"NDB","f":"332.000 kHz","ch":null,"rng":null,"e":291}},{"type":"Feature","geometry":{"type":"Point","coordinates":[122.23528,-17.94639]},"properties":{"n":"BROOME","id":"BRM","t":"NDB","f":"320.000 kHz","ch":null,"rng":60,"e":8}},{"type":"Feature","geometry":{"type":"Point","coordinates":[115.39528,-33.6925]},"properties":{"n":"BUSSELTON","id":"BLN","t":"NDB","f":"386.000 kHz","ch":null,"rng":50,"e":15}},{"type":"Feature","geometry":{"type":"Point","coordinates":[149.19583,-35.28139]},"properties":{"n":"CANBERRA","id":"CB","t":"VOR/DME","f":"116.700 MHz","ch":"114X","rng":40,"e":580}},{"type":"Feature","geometry":{"type":"Point","coordinates":[149.2075,-35.29556]},"properties":{"n":"CANBERRA","id":"CB","t":"NDB","f":"263.000 kHz","ch":null,"rng":null,"e":588}},{"type":"Feature","geometry":{"type":"Point","coordinates":[113.66917,-24.88667]},"properties":{"n":"CARNARVON","id":"CAR","t":"NDB","f":"323.000 kHz","ch":null,"rng":120,"e":5}},{"type":"Feature","geometry":{"type":"Point","coordinates":[113.67278,-24.88194]},"properties":{"n":"CARNARVON","id":"CAR","t":"VOR/DME","f":"113.000 MHz","ch":"77X","rng":null,"e":8}},{"type":"Feature","geometry":{"type":"Point","coordinates":[133.72694,-32.12667]},"properties":{"n":"CEDUNA","id":"CDU","t":"NDB","f":"293.000 kHz","ch":null,"rng":110,"e":28}},{"type":"Feature","geometry":{"type":"Point","coordinates":[140.50111,-20.66556]},"properties":{"n":"CLONCURRY","id":"CCY","t":"NDB","f":"264.000 kHz","ch":null,"rng":75,"e":190}},{"type":"Feature","geometry":{"type":"Point","coordinates":[145.79861,-31.54]},"properties":{"n":"COBAR","id":"CBA","t":"NDB","f":"395.000 kHz","ch":null,"rng":45,"e":223}},{"type":"Feature","geometry":{"type":"Point","coordinates":[153.12083,-30.31944]},"properties":{"n":"COFFS HARBOUR","id":"CFS","t":"VOR/DME","f":"117.000 MHz","ch":"117X","rng":null,"e":10}},{"type":"Feature","geometry":{"type":"Point","coordinates":[134.72389,-29.03167]},"properties":{"n":"COOBER PEDY","id":"CBP","t":"NDB","f":"341.000 kHz","ch":null,"rng":50,"e":228}},{"type":"Feature","geometry":{"type":"Point","coordinates":[148.9575,-36.35389]},"properties":{"n":"COOMA","id":"COM","t":"NDB","f":"293.000 kHz","ch":null,"rng":80,"e":918}},{"type":"Feature","geometry":{"type":"Point","coordinates":[148.95778,-36.35417]},"properties":{"n":"COOMA","id":"COM","t":"DME","f":"114.000 MHz","ch":"87X","rng":null,"e":1000}},{"type":"Feature","geometry":{"type":"Point","coordinates":[148.65333,-33.845]},"properties":{"n":"COWRA","id":"CWR","t":"NDB","f":"299.000 kHz","ch":null,"rng":110,"e":304}},{"type":"Feature","geometry":{"type":"Point","coordinates":[117.22389,-31.625]},"properties":{"n":"CUNDERDIN","id":"CUN","t":"NDB","f":"293.000 kHz","ch":null,"rng":140,"e":217}},{"type":"Feature","geometry":{"type":"Point","coordinates":[145.62361,-28.03472]},"properties":{"n":"CUNNAMULLA","id":"CMU","t":"NDB","f":"218.000 kHz","ch":null,"rng":90,"e":195}},{"type":"Feature","geometry":{"type":"Point","coordinates":[123.85194,-17.58889]},"properties":{"n":"CURTIN","id":"CIN","t":"VOR/DME","f":"114.300 MHz","ch":"90X","rng":null,"e":99}},{"type":"Feature","geometry":{"type":"Point","coordinates":[130.88306,-12.41361]},"properties":{"n":"DARWIN","id":"DAR","t":"TACAN","f":"113.700 MHz","ch":"84X","rng":null,"e":27}},{"type":"Feature","geometry":{"type":"Point","coordinates":[123.66694,-17.35694]},"properties":{"n":"DERBY","id":"DBY","t":"NDB","f":"332.000 kHz","ch":null,"rng":50,"e":10}},{"type":"Feature","geometry":{"type":"Point","coordinates":[148.55917,-32.2175]},"properties":{"n":"DUBBO","id":"DU","t":"NDB","f":"251.000 kHz","ch":null,"rng":90,"e":281}},{"type":"Feature","geometry":{"type":"Point","coordinates":[148.17111,-23.5675]},"properties":{"n":"EMERALD","id":"EML","t":"NDB","f":"324.000 kHz","ch":null,"rng":60,"e":192}},{"type":"Feature","geometry":{"type":"Point","coordinates":[121.82389,-33.68056]},"properties":{"n":"ESPERANCE","id":"ESP","t":"VOR/DME","f":"114.200 MHz","ch":"89X","rng":120,"e":141}},{"type":"Feature","geometry":{"type":"Point","coordinates":[121.82722,-33.68694]},"properties":{"n":"ESPERANCE","id":"ESP","t":"NDB","f":"326.000 kHz","ch":null,"rng":null,"e":155}},{"type":"Feature","geometry":{"type":"Point","coordinates":[128.09944,-30.855]},"properties":{"n":"FORREST","id":"FRT","t":"NDB","f":"268.000 kHz","ch":null,"rng":90,"e":161}},{"type":"Feature","geometry":{"type":"Point","coordinates":[114.70167,-28.79833]},"properties":{"n":"GERALDTON","id":"GEL","t":"NDB","f":"359.000 kHz","ch":null,"rng":100,"e":34}},{"type":"Feature","geometry":{"type":"Point","coordinates":[114.70611,-28.79028]},"properties":{"n":"GERALDTON","id":"GEL","t":"VOR/DME","f":"113.900 MHz","ch":"86X","rng":null,"e":38}},{"type":"Feature","geometry":{"type":"Point","coordinates":[115.86556,-31.45972]},"properties":{"n":"GINGIN","id":"GIG","t":"NDB","f":"372.000 kHz","ch":null,"rng":100,"e":74}},{"type":"Feature","geometry":{"type":"Point","coordinates":[151.20444,-23.86528]},"properties":{"n":"GLADSTONE","id":"GLA","t":"VOR","f":"116.300 MHz","ch":null,"rng":null,"e":43}},{"type":"Feature","geometry":{"type":"Point","coordinates":[149.73722,-34.80722]},"properties":{"n":"GOULBURN","id":"GLB","t":"NDB","f":"407.000 kHz","ch":null,"rng":40,"e":635}},{"type":"Feature","geometry":{"type":"Point","coordinates":[136.82444,-12.27028]},"properties":{"n":"GOVE","id":"GV","t":"NDB","f":"380.000 kHz","ch":null,"rng":65,"e":61}},{"type":"Feature","geometry":{"type":"Point","coordinates":[136.81639,-12.265]},"properties":{"n":"GOVE","id":"GV","t":"VOR/DME","f":"114.100 MHz","ch":"88X","rng":null,"e":59}},{"type":"Feature","geometry":{"type":"Point","coordinates":[153.0275,-29.75972]},"properties":{"n":"GRAFTON","id":"GFN","t":"NDB","f":"389.000 kHz","ch":null,"rng":20,"e":26}},{"type":"Feature","geometry":{"type":"Point","coordinates":[136.45556,-13.975]},"properties":{"n":"GROOTE EYLANDT","id":"GTE","t":"NDB","f":"407.000 kHz","ch":null,"rng":90,"e":13}},{"type":"Feature","geometry":{"type":"Point","coordinates":[136.455,-13.97528]},"properties":{"n":"GROOTE EYLANDT","id":"GTE","t":"DME","f":"114.800 MHz","ch":"95X","rng":null,"e":15}},{"type":"Feature","geometry":{"type":"Point","coordinates":[150.24833,-30.95417]},"properties":{"n":"GUNNEDAH","id":"GDH","t":"NDB","f":"407.000 kHz","ch":null,"rng":35,"e":262}},{"type":"Feature","geometry":{"type":"Point","coordinates":[148.95583,-20.35111]},"properties":{"n":"HAMILTON ISLAND","id":"HM","t":"VOR/DME","f":"114.400 MHz","ch":"91X","rng":null,"e":176}},{"type":"Feature","geometry":{"type":"Point","coordinates":[130.63722,-18.33083]},"properties":{"n":"HOOKER CREEK","id":"HOO","t":"NDB","f":"398.000 kHz","ch":null,"rng":50,"e":322}},{"type":"Feature","geometry":{"type":"Point","coordinates":[142.2925,-10.59194]},"properties":{"n":"HORN ISLAND","id":"HID","t":"NDB","f":"356.000 kHz","ch":null,"rng":50,"e":20}},{"type":"Feature","geometry":{"type":"Point","coordinates":[144.22889,-20.82056]},"properties":{"n":"HUGHENDEN","id":"HUG","t":"NDB","f":"371.000 kHz","ch":null,"rng":110,"e":320}},{"type":"Feature","geometry":{"type":"Point","coordinates":[146.01528,-17.56167]},"properties":{"n":"INNISFAIL","id":"IFL","t":"NDB","f":"212.000 kHz","ch":null,"rng":25,"e":13}},{"type":"Feature","geometry":{"type":"Point","coordinates":[151.14,-29.88472]},"properties":{"n":"INVERELL","id":"IVL","t":"NDB","f":"260.000 kHz","ch":null,"rng":40,"e":803}},{"type":"Feature","geometry":{"type":"Point","coordinates":[115.88667,-32.10278]},"properties":{"n":"JANDAKOT","id":"JT","t":"NDB","f":"281.000 kHz","ch":null,"rng":30,"e":29}},{"type":"Feature","geometry":{"type":"Point","coordinates":[121.46333,-30.79528]},"properties":{"n":"KALGOORLIE","id":"KG","t":"NDB","f":"287.000 kHz","ch":null,"rng":140,"e":366}},{"type":"Feature","geometry":{"type":"Point","coordinates":[121.45278,-30.78972]},"properties":{"n":"KALGOORLIE","id":"KG","t":"VOR/DME","f":"114.100 MHz","ch":"88X","rng":null,"e":370}},{"type":"Feature","geometry":{"type":"Point","coordinates":[116.78389,-20.70611]},"properties":{"n":"KARRATHA","id":"KA","t":"NDB","f":"404.000 kHz","ch":null,"rng":70,"e":7}},{"type":"Feature","geometry":{"type":"Point","coordinates":[116.77389,-20.715]},"properties":{"n":"KARRATHA","id":"KA","t":"VOR/DME","f":"117.300 MHz","ch":"120X","rng":null,"e":10}},{"type":"Feature","geometry":{"type":"Point","coordinates":[143.87528,-39.88917]},"properties":{"n":"KING ISLAND","id":"KII","t":"NDB","f":"332.000 kHz","ch":null,"rng":130,"e":45}},{"type":"Feature","geometry":{"type":"Point","coordinates":[141.74833,-15.47972]},"properties":{"n":"KOWANYAMA","id":"KOW","t":"NDB","f":"242.000 kHz","ch":null,"rng":60,"e":15}},{"type":"Feature","geometry":{"type":"Point","coordinates":[128.70389,-15.78389]},"properties":{"n":"KUNUNURRA","id":"KU","t":"NDB","f":"221.000 kHz","ch":null,"rng":30,"e":41}},{"type":"Feature","geometry":{"type":"Point","coordinates":[128.70861,-15.77556]},"properties":{"n":"KUNUNURRA","id":"KU","t":"VOR/DME","f":"116.500 MHz","ch":"112X","rng":null,"e":43}},{"type":"Feature","geometry":{"type":"Point","coordinates":[146.47583,-38.2025]},"properties":{"n":"LATROBE VALLEY","id":"LTV","t":"NDB","f":"486.000 kHz","ch":null,"rng":30,"e":56}},{"type":"Feature","geometry":{"type":"Point","coordinates":[147.225,-41.56111]},"properties":{"n":"LAUNCESTON","id":"LT","t":"NDB","f":"242.000 kHz","ch":null,"rng":75,"e":165}},{"type":"Feature","geometry":{"type":"Point","coordinates":[147.21333,-41.54389]},"properties":{"n":"LAUNCESTON","id":"LT","t":"VOR/DME","f":"112.600 MHz","ch":"73X","rng":null,"e":167}},{"type":"Feature","geometry":{"type":"Point","coordinates":[114.09417,-22.23472]},"properties":{"n":"LEARMONTH","id":"LM","t":"VOR/DME","f":"112.400 MHz","ch":"71X","rng":90,"e":4}},{"type":"Feature","geometry":{"type":"Point","coordinates":[114.09583,-22.24139]},"properties":{"n":"LEARMONTH","id":"LM","t":"NDB","f":"396.000 kHz","ch":null,"rng":null,"e":4}},{"type":"Feature","geometry":{"type":"Point","coordinates":[138.44222,-30.59861]},"properties":{"n":"LEIGH CREEK","id":"LEC","t":"NDB","f":"287.000 kHz","ch":null,"rng":150,"e":275}},{"type":"Feature","geometry":{"type":"Point","coordinates":[120.70028,-27.84056]},"properties":{"n":"LEINSTER","id":"LST","t":"NDB","f":"230.000 kHz","ch":null,"rng":70,"e":503}},{"type":"Feature","geometry":{"type":"Point","coordinates":[121.32028,-28.87889]},"properties":{"n":"LEONORA","id":"LEO","t":"NDB","f":"377.000 kHz","ch":null,"rng":80,"e":375}},{"type":"Feature","geometry":{"type":"Point","coordinates":[143.30361,-12.78861]},"properties":{"n":"LOCKHART RIVER","id":"LHR","t":"NDB","f":"392.000 kHz","ch":null,"rng":30,"e":26}},{"type":"Feature","geometry":{"type":"Point","coordinates":[144.28917,-23.42833]},"properties":{"n":"LONGREACH","id":"LRE","t":"NDB","f":"353.000 kHz","ch":null,"rng":120,"e":196}},{"type":"Feature","geometry":{"type":"Point","coordinates":[159.07306,-31.52889]},"properties":{"n":"LORD HOWE ISLAND","id":"LHI","t":"NDB","f":"272.000 kHz","ch":null,"rng":null,"e":60}},{"type":"Feature","geometry":{"type":"Point","coordinates":[159.0725,-31.52889]},"properties":{"n":"LORD HOWE ISLAND","id":"LHI","t":"DME","f":"114.300 MHz","ch":"90X","rng":null,"e":1}},{"type":"Feature","geometry":{"type":"Point","coordinates":[149.18611,-21.16222]},"properties":{"n":"MACKAY","id":"MK","t":"NDB","f":"308.000 kHz","ch":null,"rng":75,"e":3}},{"type":"Feature","geometry":{"type":"Point","coordinates":[149.18722,-21.17306]},"properties":{"n":"MACKAY","id":"MK","t":"VOR/DME","f":"112.700 MHz","ch":"74X","rng":null,"e":-1}},{"type":"Feature","geometry":{"type":"Point","coordinates":[145.19417,-36.88583]},"properties":{"n":"MANGALORE","id":"MNG","t":"VOR","f":"113.200 MHz","ch":null,"rng":null,"e":142}},{"type":"Feature","geometry":{"type":"Point","coordinates":[134.23167,-12.06278]},"properties":{"n":"MANINGRIDA","id":"MGD","t":"NDB","f":"401.000 kHz","ch":null,"rng":45,"e":36}},{"type":"Feature","geometry":{"type":"Point","coordinates":[118.54028,-26.61556]},"properties":{"n":"MEEKATHARRA","id":"MEK","t":"NDB","f":"251.000 kHz","ch":null,"rng":120,"e":520}},{"type":"Feature","geometry":{"type":"Point","coordinates":[118.5325,-26.60694]},"properties":{"n":"MEEKATHARRA","id":"MEK","t":"VOR/DME","f":"112.900 MHz","ch":"76X","rng":null,"e":500}},{"type":"Feature","geometry":{"type":"Point","coordinates":[149.89944,-36.91417]},"properties":{"n":"MERIMBULA","id":"MER","t":"NDB","f":"395.000 kHz","ch":null,"rng":20,"e":5}},{"type":"Feature","geometry":{"type":"Point","coordinates":[149.89917,-36.91444]},"properties":{"n":"MERIMBULA","id":"MER","t":"DME","f":"117.700 MHz","ch":"124X","rng":null,"e":25}},{"type":"Feature","geometry":{"type":"Point","coordinates":[142.07389,-34.24778]},"properties":{"n":"MILDURA","id":"MIA","t":"NDB","f":"272.000 kHz","ch":null,"rng":100,"e":52}},{"type":"Feature","geometry":{"type":"Point","coordinates":[142.07722,-34.22528]},"properties":{"n":"MILDURA","id":"MIA","t":"VOR/DME","f":"113.700 MHz","ch":"84X","rng":null,"e":53}},{"type":"Feature","geometry":{"type":"Point","coordinates":[149.85167,-29.49722]},"properties":{"n":"MOREE","id":"MOR","t":"NDB","f":"392.000 kHz","ch":null,"rng":45,"e":212}},{"type":"Feature","geometry":{"type":"Point","coordinates":[140.77889,-37.7525]},"properties":{"n":"MOUNT GAMBIER","id":"MTG","t":"NDB","f":"266.000 kHz","ch":null,"rng":50,"e":62}},{"type":"Feature","geometry":{"type":"Point","coordinates":[140.78528,-37.75139]},"properties":{"n":"MOUNT GAMBIER","id":"MTG","t":"VOR","f":"117.000 MHz","ch":null,"rng":null,"e":61}},{"type":"Feature","geometry":{"type":"Point","coordinates":[139.48667,-20.67528]},"properties":{"n":"MOUNT ISA","id":"MA","t":"NDB","f":"338.000 kHz","ch":null,"rng":100,"e":345}},{"type":"Feature","geometry":{"type":"Point","coordinates":[139.48556,-20.67306]},"properties":{"n":"MOUNT ISA","id":"MA","t":"VOR/DME","f":"117.500 MHz","ch":"122X","rng":null,"e":344}},{"type":"Feature","geometry":{"type":"Point","coordinates":[149.61611,-32.56528]},"properties":{"n":"MUDGEE","id":"MDG","t":"NDB","f":"398.000 kHz","ch":null,"rng":35,"e":468}},{"type":"Feature","geometry":{"type":"Point","coordinates":[149.83111,-30.32083]},"properties":{"n":"NARRABRI","id":"NBR","t":"NDB","f":"413.000 kHz","ch":null,"rng":50,"e":231}},{"type":"Feature","geometry":{"type":"Point","coordinates":[119.7975,-23.41806]},"properties":{"n":"NEWMAN","id":"NWM","t":"NDB","f":"233.000 kHz","ch":null,"rng":85,"e":527}},{"type":"Feature","geometry":{"type":"Point","coordinates":[119.80306,-23.42111]},"properties":{"n":"NEWMAN","id":"NWN","t":"VOR/DME","f":"117.200 MHz","ch":"119X","rng":null,"e":522}},{"type":"Feature","geometry":{"type":"Point","coordinates":[141.07306,-17.69583]},"properties":{"n":"NORMANTON","id":"NTN","t":"NDB","f":"311.000 kHz","ch":null,"rng":120,"e":18}},{"type":"Feature","geometry":{"type":"Point","coordinates":[150.53306,-34.95028]},"properties":{"n":"NOWRA","id":"NWA","t":"TACAN","f":"116.400 MHz","ch":"111X","rng":90,"e":113}},{"type":"Feature","geometry":{"type":"Point","coordinates":[150.52972,-34.95111]},"properties":{"n":"NOWRA","id":"NWA","t":"NDB","f":"359.000 kHz","ch":null,"rng":null,"e":115}},{"type":"Feature","geometry":{"type":"Point","coordinates":[151.73694,-27.42139]},"properties":{"n":"OAKEY","id":"OK","t":"NDB","f":"254.000 kHz","ch":null,"rng":70,"e":404}},{"type":"Feature","geometry":{"type":"Point","coordinates":[151.73778,-27.39972]},"properties":{"n":"OAKEY","id":"OK","t":"VOR/DME","f":"112.900 MHz","ch":"76X","rng":null,"e":406}},{"type":"Feature","geometry":{"type":"Point","coordinates":[117.7425,-23.17889]},"properties":{"n":"PARABURDOO","id":"PBO","t":"NDB","f":"278.000 kHz","ch":null,"rng":80,"e":418}},{"type":"Feature","geometry":{"type":"Point","coordinates":[117.73694,-23.1725]},"properties":{"n":"PARABURDOO","id":"PBO","t":"VOR/DME","f":"116.900 MHz","ch":"116X","rng":null,"e":420}},{"type":"Feature","geometry":{"type":"Point","coordinates":[138.63111,-34.79639]},"properties":{"n":"PARAFIELD","id":"PF","t":"NDB","f":"416.000 kHz","ch":null,"rng":35,"e":12}},{"type":"Feature","geometry":{"type":"Point","coordinates":[148.23722,-33.13139]},"properties":{"n":"PARKES","id":"PKS","t":"VOR/DME","f":"112.000 MHz","ch":"57X","rng":70,"e":320}},{"type":"Feature","geometry":{"type":"Point","coordinates":[148.2525,-33.14528]},"properties":{"n":"PARKES","id":"PKS","t":"NDB","f":"242.000 kHz","ch":null,"rng":null,"e":416}},{"type":"Feature","geometry":{"type":"Point","coordinates":[116.01889,-31.65444]},"properties":{"n":"PEARCE","id":"PEA","t":"NDB","f":"340.000 kHz","ch":null,"rng":170,"e":59}},{"type":"Feature","geometry":{"type":"Point","coordinates":[116.0175,-31.67389]},"properties":{"n":"PEARCE","id":"PEA","t":"TACAN","f":"112.800 MHz","ch":"75X","rng":null,"e":36}},{"type":"Feature","geometry":{"type":"Point","coordinates":[118.62278,-20.37833]},"properties":{"n":"PORT HEDLAND","id":"PD","t":"VOR/DME","f":"114.100 MHz","ch":"88X","rng":100,"e":10}},{"type":"Feature","geometry":{"type":"Point","coordinates":[118.64389,-20.38778]},"properties":{"n":"PORT HEDLAND","id":"PD","t":"NDB","f":"260.000 kHz","ch":null,"rng":null,"e":12}},{"type":"Feature","geometry":{"type":"Point","coordinates":[135.87333,-34.60444]},"properties":{"n":"PORT LINCOLN","id":"PLC","t":"NDB","f":"389.000 kHz","ch":null,"rng":70,"e":10}},{"type":"Feature","geometry":{"type":"Point","coordinates":[152.86694,-31.43556]},"properties":{"n":"PORT MACQUARIE","id":"PMQ","t":"NDB","f":"395.000 kHz","ch":null,"rng":35,"e":4}},{"type":"Feature","geometry":{"type":"Point","coordinates":[150.52389,-31.49278]},"properties":{"n":"QUIRINDI","id":"QDI","t":"NDB","f":"386.000 kHz","ch":null,"rng":40,"e":321}},{"type":"Feature","geometry":{"type":"Point","coordinates":[150.77639,-33.59694]},"properties":{"n":"RICHMOND","id":"RIC","t":"NDB","f":"347.000 kHz","ch":null,"rng":null,"e":22}},{"type":"Feature","geometry":{"type":"Point","coordinates":[150.47528,-23.37083]},"properties":{"n":"ROCKHAMPTON","id":"RK","t":"NDB","f":"257.000 kHz","ch":null,"rng":65,"e":11}},{"type":"Feature","geometry":{"type":"Point","coordinates":[150.47139,-23.38278]},"properties":{"n":"ROCKHAMPTON","id":"RK","t":"VOR/DME","f":"116.900 MHz","ch":"116X","rng":null,"e":9}},{"type":"Feature","geometry":{"type":"Point","coordinates":[148.78167,-26.54306]},"properties":{"n":"ROMA","id":"ROM","t":"NDB","f":"377.000 kHz","ch":null,"rng":90,"e":305}},{"type":"Feature","geometry":{"type":"Point","coordinates":[150.83111,-32.03472]},"properties":{"n":"SCONE","id":"SCO","t":"NDB","f":"209.000 kHz","ch":null,"rng":40,"e":225}},{"type":"Feature","geometry":{"type":"Point","coordinates":[145.39611,-36.42833]},"properties":{"n":"SHEPPARTON","id":"SHT","t":"NDB","f":"212.000 kHz","ch":null,"rng":30,"e":114}},{"type":"Feature","geometry":{"type":"Point","coordinates":[148.59722,-28.04722]},"properties":{"n":"ST. GEORGE","id":"SGE","t":"NDB","f":"383.000 kHz","ch":null,"rng":40,"e":202}},{"type":"Feature","geometry":{"type":"Point","coordinates":[143.54028,-35.38056]},"properties":{"n":"SWAN HILL","id":"SWH","t":"NDB","f":"407.000 kHz","ch":null,"rng":45,"e":70}},{"type":"Feature","geometry":{"type":"Point","coordinates":[151.1825,-33.94389]},"properties":{"n":"SYDNEY","id":"SY","t":"DME","f":"112.100 MHz","ch":"58X","rng":90,"e":30}},{"type":"Feature","geometry":{"type":"Point","coordinates":[134.17528,-19.64417]},"properties":{"n":"TENNANT CREEK","id":"TNK","t":"NDB","f":"272.000 kHz","ch":null,"rng":100,"e":370}},{"type":"Feature","geometry":{"type":"Point","coordinates":[134.18194,-19.63472]},"properties":{"n":"TENNANT CREEK","id":"TNK","t":"VOR/DME","f":"112.900 MHz","ch":"76X","rng":null,"e":367}},{"type":"Feature","geometry":{"type":"Point","coordinates":[132.37111,-14.51917]},"properties":{"n":"TINDAL","id":"TN","t":"VORTAC","f":"112.300 MHz","ch":"70X","rng":80,"e":133}},{"type":"Feature","geometry":{"type":"Point","coordinates":[132.36028,-14.51583]},"properties":{"n":"TINDAL","id":"TN","t":"NDB","f":"356.000 kHz","ch":null,"rng":null,"e":133}},{"type":"Feature","geometry":{"type":"Point","coordinates":[146.76222,-19.24694]},"properties":{"n":"TOWNSVILLE","id":"TVL","t":"NDB","f":"276.000 kHz","ch":null,"rng":70,"e":5}},{"type":"Feature","geometry":{"type":"Point","coordinates":[146.75806,-19.24417]},"properties":{"n":"TOWNSVILLE","id":"TL","t":"VOR/DME","f":"114.100 MHz","ch":"88X","rng":null,"e":5}},{"type":"Feature","geometry":{"type":"Point","coordinates":[146.7425,-19.27889]},"properties":{"n":"TOWNSVILLE","id":"TVL","t":"TACAN","f":"113.500 MHz","ch":"82X","rng":null,"e":186}},{"type":"Feature","geometry":{"type":"Point","coordinates":[147.45556,-35.16306]},"properties":{"n":"WAGGA WAGGA","id":"WG","t":"NDB","f":"221.000 kHz","ch":null,"rng":80,"e":1}},{"type":"Feature","geometry":{"type":"Point","coordinates":[147.46917,-35.16583]},"properties":{"n":"WAGGA WAGGA","id":"WG","t":"VOR/DME","f":"115.000 MHz","ch":"97X","rng":null,"e":219}},{"type":"Feature","geometry":{"type":"Point","coordinates":[148.12389,-30.02722]},"properties":{"n":"WALGETT","id":"WLG","t":"NDB","f":"374.000 kHz","ch":null,"rng":50,"e":136}},{"type":"Feature","geometry":{"type":"Point","coordinates":[126.57972,-26.12806]},"properties":{"n":"WARBURTON","id":"WBR","t":"NDB","f":"218.000 kHz","ch":null,"rng":90,"e":461}},{"type":"Feature","geometry":{"type":"Point","coordinates":[141.9225,-12.67361]},"properties":{"n":"WEIPA","id":"WP","t":"VOR/DME","f":"112.800 MHz","ch":"75X","rng":40,"e":25}},{"type":"Feature","geometry":{"type":"Point","coordinates":[141.9225,-12.66167]},"properties":{"n":"WEIPA","id":"WP","t":"NDB","f":"377.000 kHz","ch":null,"rng":null,"e":26}},{"type":"Feature","geometry":{"type":"Point","coordinates":[151.53278,-32.755]},"properties":{"n":"WEST MAITLAND","id":"WMD","t":"NDB","f":"224.000 kHz","ch":null,"rng":65,"e":37}},{"type":"Feature","geometry":{"type":"Point","coordinates":[137.52417,-33.05806]},"properties":{"n":"WHYALLA","id":"WHA","t":"NDB","f":"371.000 kHz","ch":null,"rng":75,"e":37}},{"type":"Feature","geometry":{"type":"Point","coordinates":[151.82889,-32.80333]},"properties":{"n":"WILLIAMTOWN","id":"WLM","t":"NDB","f":"365.000 kHz","ch":null,"rng":130,"e":4}},{"type":"Feature","geometry":{"type":"Point","coordinates":[151.83306,-32.79694]},"properties":{"n":"WILLIAMTOWN","id":"WLM","t":"TACAN","f":"113.300 MHz","ch":"80X","rng":null,"e":5}},{"type":"Feature","geometry":{"type":"Point","coordinates":[120.22,-26.62472]},"properties":{"n":"WILUNA","id":"WLU","t":"NDB","f":"383.000 kHz","ch":null,"rng":100,"e":505}},{"type":"Feature","geometry":{"type":"Point","coordinates":[142.66306,-25.41083]},"properties":{"n":"WINDORAH","id":"WDH","t":"NDB","f":"407.000 kHz","ch":null,"rng":40,"e":133}},{"type":"Feature","geometry":{"type":"Point","coordinates":[150.79111,-34.55806]},"properties":{"n":"WOLLONGONG","id":"WOL","t":"NDB","f":"239.000 kHz","ch":null,"rng":50,"e":10}},{"type":"Feature","geometry":{"type":"Point","coordinates":[136.80833,-31.14333]},"properties":{"n":"WOOMERA","id":"WR","t":"NDB","f":"248.000 kHz","ch":null,"rng":125,"e":170}},{"type":"Feature","geometry":{"type":"Point","coordinates":[145.70833,-40.99806]},"properties":{"n":"WYNYARD","id":"WYY","t":"NDB","f":"302.000 kHz","ch":null,"rng":65,"e":24}},{"type":"Feature","geometry":{"type":"Point","coordinates":[130.97478,-25.17147]},"properties":{"n":"AYERS ROCK","id":"AYE","t":"DME","f":"117.100 MHz","ch":"118X","rng":null,"e":488}},{"type":"Feature","geometry":{"type":"Point","coordinates":[138.52442,-34.94708]},"properties":{"n":"ADELAIDE","id":"AD","t":"DME","f":"116.400 MHz","ch":"111X","rng":null,"e":10}}]}